{
  "type": "FeatureCollection",
  "features": [
    {
      "type": "Feature",
      "properties": {
        "norad_id": 67116,
        "name": "STARLINK-35738",
        "group": "last-30-days",
        "lat": 24.571799854231674,
        "lon": 41.93021970097283,
        "alt_km": 296.3265665385579,
        "timestamp": "2025-12-23T09:49:05.801070+00:00",
        "meta_object_name": "STARLINK-35738",
        "meta_object_id": "2025-299Q",
        "meta_epoch": "2025-12-22T22:00:03.000096",
        "meta_mean_motion": 15.93063124,
        "meta_eccentricity": 0.00013619,
        "meta_inclination": 42.9982,
        "meta_ra_of_asc_node": 254.3823,
        "meta_arg_of_pericenter": 269.8915,
        "meta_mean_anomaly": 286.8645,
        "meta_ephemeris_type": 0,
        "meta_classification_type": "U",
        "meta_norad_cat_id": 67116,
        "meta_element_set_no": 999,
        "meta_rev_at_epoch": 233,
        "meta_bstar": -0.0058298537,
        "meta_mean_motion_dot": -0.02104217,
        "meta_mean_motion_ddot": 0.0012011396,
        "tle_line1": "1 67116U 25299Q   25356.91670139 -.02104217  12011-2 -58299-2 0  9996",
        "tle_line2": "2 67116  42.9982 254.3823 0001361 269.8915 286.8645 15.93063124  2336"
      },
      "geometry": {
        "type": "Point",
        "coordinates": [
          41.93021970097283,
          24.571799854231674
        ]
      }
    },
    {
      "type": "Feature",
      "properties": {
        "norad_id": 67117,
        "name": "STARLINK-35674",
        "group": "last-30-days",
        "lat": 23.580495315731824,
        "lon": 43.38082794082603,
        "alt_km": 296.2720103591528,
        "timestamp": "2025-12-23T09:49:05.801080+00:00",
        "meta_object_name": "STARLINK-35674",
        "meta_object_id": "2025-299R",
        "meta_epoch": "2025-12-22T22:00:03.000096",
        "meta_mean_motion": 15.93067516,
        "meta_eccentricity": 0.00013985,
        "meta_inclination": 42.9984,
        "meta_ra_of_asc_node": 254.3781,
        "meta_arg_of_pericenter": 262.3506,
        "meta_mean_anomaly": 296.0511,
        "meta_ephemeris_type": 0,
        "meta_classification_type": "U",
        "meta_norad_cat_id": 67117,
        "meta_element_set_no": 999,
        "meta_rev_at_epoch": 223,
        "meta_bstar": -0.0058107579,
        "meta_mean_motion_dot": -0.02097898,
        "meta_mean_motion_ddot": 0.0011944094,
        "tle_line1": "1 67117U 25299R   25356.91670139 -.02097898  11944-2 -58108-2 0  9996",
        "tle_line2": "2 67117  42.9984 254.3781 0001398 262.3506 296.0511 15.93067516  2239"
      },
      "geometry": {
        "type": "Point",
        "coordinates": [
          43.38082794082603,
          23.580495315731824
        ]
      }
    },
    {
      "type": "Feature",
      "properties": {
        "norad_id": 67118,
        "name": "STARLINK-35701",
        "group": "last-30-days",
        "lat": 22.544580586032975,
        "lon": 44.85293187714807,
        "alt_km": 296.74520594231217,
        "timestamp": "2025-12-23T09:49:05.801090+00:00",
        "meta_object_name": "STARLINK-35701",
        "meta_object_id": "2025-299S",
        "meta_epoch": "2025-12-22T22:00:03.000096",
        "meta_mean_motion": 15.9307182,
        "meta_eccentricity": 0.00016622,
        "meta_inclination": 42.9982,
        "meta_ra_of_asc_node": 254.3738,
        "meta_arg_of_pericenter": 272.2723,
        "meta_mean_anomaly": 287.8307,
        "meta_ephemeris_type": 0,
        "meta_classification_type": "U",
        "meta_norad_cat_id": 67118,
        "meta_element_set_no": 999,
        "meta_rev_at_epoch": 239,
        "meta_bstar": -0.005816752,
        "meta_mean_motion_dot": -0.02100589,
        "meta_mean_motion_ddot": 0.0011973466,
        "tle_line1": "1 67118U 25299S   25356.91670139 -.02100589  11973-2 -58168-2 0  9997",
        "tle_line2": "2 67118  42.9982 254.3738 0001662 272.2723 287.8307 15.93071820  2396"
      },
      "geometry": {
        "type": "Point",
        "coordinates": [
          44.85293187714807,
          22.544580586032975
        ]
      }
    },
    {
      "type": "Feature",
      "properties": {
        "norad_id": 67119,
        "name": "STARLINK-36179",
        "group": "last-30-days",
        "lat": 20.94826417977774,
        "lon": 47.04400527748218,
        "alt_km": 296.868372224566,
        "timestamp": "2025-12-23T09:49:05.801100+00:00",
        "meta_object_name": "STARLINK-36179",
        "meta_object_id": "2025-299T",
        "meta_epoch": "2025-12-22T22:00:03.000096",
        "meta_mean_motion": 15.93088597,
        "meta_eccentricity": 0.00016234,
        "meta_inclination": 42.9981,
        "meta_ra_of_asc_node": 254.3672,
        "meta_arg_of_pericenter": 273.548,
        "meta_mean_anomaly": 289.0989,
        "meta_ephemeris_type": 0,
        "meta_classification_type": "U",
        "meta_norad_cat_id": 67119,
        "meta_element_set_no": 999,
        "meta_rev_at_epoch": 244,
        "meta_bstar": -0.0057606704,
        "meta_mean_motion_dot": -0.02082387,
        "meta_mean_motion_ddot": 0.0011780907,
        "tle_line1": "1 67119U 25299T   25356.91670139 -.02082387  11781-2 -57607-2 0  9997",
        "tle_line2": "2 67119  42.9981 254.3672 0001623 273.5480 289.0989 15.93088597  2449"
      },
      "geometry": {
        "type": "Point",
        "coordinates": [
          47.04400527748218,
          20.94826417977774
        ]
      }
    },
    {
      "type": "Feature",
      "properties": {
        "norad_id": 67120,
        "name": "STARLINK-36217",
        "group": "last-30-days",
        "lat": 21.67805035513783,
        "lon": 46.05367136883811,
        "alt_km": 296.22394721442924,
        "timestamp": "2025-12-23T09:49:05.801112+00:00",
        "meta_object_name": "STARLINK-36217",
        "meta_object_id": "2025-299U",
        "meta_epoch": "2025-12-22T22:00:03.000096",
        "meta_mean_motion": 15.93063853,
        "meta_eccentricity": 0.00012616,
        "meta_inclination": 42.9982,
        "meta_ra_of_asc_node": 254.3705,
        "meta_arg_of_pericenter": 254.9531,
        "meta_mean_anomaly": 306.5489,
        "meta_ephemeris_type": 0,
        "meta_classification_type": "U",
        "meta_norad_cat_id": 67120,
        "meta_element_set_no": 999,
        "meta_rev_at_epoch": 244,
        "meta_bstar": -0.0057292781,
        "meta_mean_motion_dot": -0.02068409,
        "meta_mean_motion_ddot": 0.0011629709,
        "tle_line1": "1 67120U 25299U   25356.91670139 -.02068409  11630-2 -57293-2 0  9992",
        "tle_line2": "2 67120  42.9982 254.3705 0001261 254.9531 306.5489 15.93063853  2445"
      },
      "geometry": {
        "type": "Point",
        "coordinates": [
          46.05367136883811,
          21.67805035513783
        ]
      }
    },
    {
      "type": "Feature",
      "properties": {
        "norad_id": 67121,
        "name": "STARLINK-36124",
        "group": "last-30-days",
        "lat": 18.81471483341226,
        "lon": 49.84625564914568,
        "alt_km": 296.5054431759936,
        "timestamp": "2025-12-23T09:49:05.801123+00:00",
        "meta_object_name": "STARLINK-36124",
        "meta_object_id": "2025-299V",
        "meta_epoch": "2025-12-22T22:00:03.000096",
        "meta_mean_motion": 15.93108383,
        "meta_eccentricity": 0.00013605,
        "meta_inclination": 42.9982,
        "meta_ra_of_asc_node": 254.3589,
        "meta_arg_of_pericenter": 254.509,
        "meta_mean_anomaly": 311.4977,
        "meta_ephemeris_type": 0,
        "meta_classification_type": "U",
        "meta_norad_cat_id": 67121,
        "meta_element_set_no": 999,
        "meta_rev_at_epoch": 244,
        "meta_bstar": -0.0057512718,
        "meta_mean_motion_dot": -0.02081096,
        "meta_mean_motion_ddot": 0.00117696,
        "tle_line1": "1 67121U 25299V   25356.91670139 -.02081096  11770-2 -57513-2 0  9990",
        "tle_line2": "2 67121  42.9982 254.3589 0001360 254.5090 311.4977 15.93108383  2447"
      },
      "geometry": {
        "type": "Point",
        "coordinates": [
          49.84625564914568,
          18.81471483341226
        ]
      }
    },
    {
      "type": "Feature",
      "properties": {
        "norad_id": 67122,
        "name": "STARLINK-36188",
        "group": "last-30-days",
        "lat": 17.913084855449068,
        "lon": 50.99257240283832,
        "alt_km": 296.4030311445804,
        "timestamp": "2025-12-23T09:49:05.801133+00:00",
        "meta_object_name": "STARLINK-36188",
        "meta_object_id": "2025-299W",
        "meta_epoch": "2025-12-22T22:00:03.000096",
        "meta_mean_motion": 15.93056025,
        "meta_eccentricity": 0.00013976,
        "meta_inclination": 42.9983,
        "meta_ra_of_asc_node": 254.3553,
        "meta_arg_of_pericenter": 249.2899,
        "meta_mean_anomaly": 318.153,
        "meta_ephemeris_type": 0,
        "meta_classification_type": "U",
        "meta_norad_cat_id": 67122,
        "meta_element_set_no": 999,
        "meta_rev_at_epoch": 244,
        "meta_bstar": -0.0055250872,
        "meta_mean_motion_dot": -0.01994819,
        "meta_mean_motion_ddot": 0.0010864875,
        "tle_line1": "1 67122U 25299W   25356.91670139 -.01994819  10865-2 -55251-2 0  9997",
        "tle_line2": "2 67122  42.9983 254.3553 0001397 249.2899 318.1530 15.93056025  2442"
      },
      "geometry": {
        "type": "Point",
        "coordinates": [
          50.99257240283832,
          17.913084855449068
        ]
      }
    }
  ]
}